start=new Date('2023-03-01T00:00:00.000Z').valueOf();
sats=[{"RCS_SIZE":"LARGE","CENTER_NAME":"EARTH","CLASSIFICATION_TYPE":"U","PERIAPSIS":"448.200","MEAN_MOTION_DDOT":"0.0000000000000","ARG_OF_PERICENTER":"265.2896","APOAPSIS":"452.748","MEAN_ANOMALY":"26.6907","FILE":"3847656","ECCENTRICITY":"0.00033300","EPHEMERIS_TYPE":"0","BSTAR":"-0.03650200000000","NORAD_CAT_ID":"55437","COUNTRY_CODE":"US","OBJECT_ID":"2023-014AY","EPOCH":"2023-02-28T22:00:00.999936","MEAN_ELEMENT_THEORY":"SGP4","REF_FRAME":"TEME","INCLINATION":"70.0003","RA_OF_ASC_NODE":"11.2899","SITE":"AFWTR","PERIOD":"93.596","GP_ID":"227269705","OBJECT_TYPE":"PAYLOAD","MEAN_MOTION_DOT":"-0.01259544","TIME_SYSTEM":"UTC","LAUNCH_DATE":"2023-01-31","TLE_LINE1":"1 55437U 23014AY  23059.91667824 -.01259544  00000-0 -36502-1 0  9995","DECAY_DATE":null,"REV_AT_EPOCH":"130","OBJECT_NAME":"STARLINK-5080","TLE_LINE2":"2 55437  70.0003  11.2899 0003330 265.2896  26.6907 15.38524445  1308","ELEMENT_SET_NO":"999","MEAN_MOTION":"15.38524445","SEMIMAJOR_AXIS":"6828.609"},{"ARG_OF_PERICENTER":"253.0665","MEAN_MOTION_DDOT":"0.0000000000000","APOAPSIS":"361.111","CLASSIFICATION_TYPE":"U","PERIAPSIS":"357.257","RCS_SIZE":"LARGE","CENTER_NAME":"EARTH","EPHEMERIS_TYPE":"0","BSTAR":"-0.00002700600000","ECCENTRICITY":"0.00028600","MEAN_ANOMALY":"107.0217","FILE":"3847656","PERIOD":"91.726","SITE":"AFWTR","OBJECT_TYPE":"PAYLOAD","GP_ID":"227269955","INCLINATION":"70.0037","REF_FRAME":"TEME","MEAN_ELEMENT_THEORY":"SGP4","RA_OF_ASC_NODE":"10.3547","EPOCH":"2023-02-28T21:45:30.074976","NORAD_CAT_ID":"55438","OBJECT_ID":"2023-014AZ","COUNTRY_CODE":"US","MEAN_MOTION":"15.69900260","SEMIMAJOR_AXIS":"6737.319","TLE_LINE2":"2 55438  70.0037  10.3547 0002860 253.0665 107.0217 15.69900260  5570","ELEMENT_SET_NO":"999","TLE_LINE1":"1 55438U 23014AZ  23059.90659809 -.00003455  00000-0 -27006-4 0  9998","DECAY_DATE":null,"OBJECT_NAME":"STARLINK-5074","REV_AT_EPOCH":"557","LAUNCH_DATE":"2023-01-31","MEAN_MOTION_DOT":"-0.00003455","TIME_SYSTEM":"UTC"},{"ECCENTRICITY":"0.00032910","FILE":"3847656","MEAN_ANOMALY":"6.9593","BSTAR":"-0.03773000000000","EPHEMERIS_TYPE":"0","RCS_SIZE":"LARGE","CENTER_NAME":"EARTH","APOAPSIS":"455.755","MEAN_MOTION_DDOT":"0.0000000000000","ARG_OF_PERICENTER":"264.5260","PERIAPSIS":"451.258","CLASSIFICATION_TYPE":"U","DECAY_DATE":null,"OBJECT_NAME":"STARLINK-5634","REV_AT_EPOCH":"130","TLE_LINE1":"1 55439U 23014BA  23059.91667824 -.01259080  00000-0 -37730-1 0  9996","MEAN_MOTION_DOT":"-0.01259080","TIME_SYSTEM":"UTC","LAUNCH_DATE":"2023-01-31","SEMIMAJOR_AXIS":"6831.641","MEAN_MOTION":"15.37500193","ELEMENT_SET_NO":"999","TLE_LINE2":"2 55439  70.0003  11.3131 0003291 264.5260   6.9593 15.37500193  1308","EPOCH":"2023-02-28T22:00:00.999936","COUNTRY_CODE":"US","OBJECT_ID":"2023-014BA","NORAD_CAT_ID":"55439","GP_ID":"227270207","OBJECT_TYPE":"PAYLOAD","SITE":"AFWTR","PERIOD":"93.659","RA_OF_ASC_NODE":"11.3131","MEAN_ELEMENT_THEORY":"SGP4","REF_FRAME":"TEME","INCLINATION":"70.0003"},{"CENTER_NAME":"EARTH","RCS_SIZE":"LARGE","CLASSIFICATION_TYPE":"U","PERIAPSIS":"353.994","ARG_OF_PERICENTER":"280.7021","MEAN_MOTION_DDOT":"0.0000000000000","APOAPSIS":"356.252","MEAN_ANOMALY":"79.3658","FILE":"3847656","ECCENTRICITY":"0.00016770","EPHEMERIS_TYPE":"0","BSTAR":"0.00011601000000","NORAD_CAT_ID":"55449","OBJECT_ID":"2023-015A","COUNTRY_CODE":"US","EPOCH":"2023-02-28T19:09:40.964256","INCLINATION":"43.0005","MEAN_ELEMENT_THEORY":"SGP4","REF_FRAME":"TEME","RA_OF_ASC_NODE":"229.1569","PERIOD":"91.643","SITE":"AFETR","OBJECT_TYPE":"PAYLOAD","GP_ID":"227269207","LAUNCH_DATE":"2023-02-02","TIME_SYSTEM":"UTC","MEAN_MOTION_DOT":"0.00014765","TLE_LINE1":"1 55449U 23015A   23059.79839079  .00014765  00000-0  11601-3 0  9994","REV_AT_EPOCH":"526","DECAY_DATE":null,"OBJECT_NAME":"STARLINK-5699","TLE_LINE2":"2 55449  43.0005 229.1569 0001677 280.7021  79.3658 15.71320806  5260","ELEMENT_SET_NO":"999","MEAN_MOTION":"15.71320806","SEMIMAJOR_AXIS":"6733.258"},{"MEAN_MOTION":"15.71331926","SEMIMAJOR_AXIS":"6733.226","TLE_LINE2":"2 55450  42.9991 228.7740 0001450 284.1633  75.9074 15.71331926  5276","ELEMENT_SET_NO":"999","TLE_LINE1":"1 55450U 23015B   23059.86205351  .00010117  00000-0  80581-4 0  9995","REV_AT_EPOCH":"527","DECAY_DATE":null,"OBJECT_NAME":"STARLINK-5686","LAUNCH_DATE":"2023-02-02","MEAN_MOTION_DOT":"0.00010117","TIME_SYSTEM":"UTC","PERIOD":"91.642","SITE":"AFETR","OBJECT_TYPE":"PAYLOAD","GP_ID":"227269457","INCLINATION":"42.9991","REF_FRAME":"TEME","MEAN_ELEMENT_THEORY":"SGP4","RA_OF_ASC_NODE":"228.7740","EPOCH":"2023-02-28T20:41:21.423264","NORAD_CAT_ID":"55450","OBJECT_ID":"2023-015B","COUNTRY_CODE":"US","EPHEMERIS_TYPE":"0","BSTAR":"0.00008058100000","ECCENTRICITY":"0.00014500","MEAN_ANOMALY":"75.9074","FILE":"3847656","ARG_OF_PERICENTER":"284.1633","MEAN_MOTION_DDOT":"0.0000000000000","APOAPSIS":"356.068","CLASSIFICATION_TYPE":"U","PERIAPSIS":"354.115","RCS_SIZE":"LARGE","CENTER_NAME":"EARTH"},{"RCS_SIZE":"LARGE","CENTER_NAME":"EARTH","MEAN_MOTION_DDOT":"0.0000000000000","ARG_OF_PERICENTER":"281.7693","APOAPSIS":"355.908","CLASSIFICATION_TYPE":"U","PERIAPSIS":"354.405","ECCENTRICITY":"0.00011160","MEAN_ANOMALY":"78.3049","FILE":"3847656","EPHEMERIS_TYPE":"0","BSTAR":"-0.00007026000000","EPOCH":"2023-02-28T20:41:04.260768","NORAD_CAT_ID":"55451","COUNTRY_CODE":"US","OBJECT_ID":"2023-015C","SITE":"AFETR","PERIOD":"91.643","GP_ID":"227270708","OBJECT_TYPE":"PAYLOAD","REF_FRAME":"TEME","MEAN_ELEMENT_THEORY":"SGP4","INCLINATION":"42.9991","RA_OF_ASC_NODE":"228.7706","TLE_LINE1":"1 55451U 23015C   23059.86185487 -.00009635  00000-0 -70260-4 0  9991","OBJECT_NAME":"STARLINK-5656","DECAY_DATE":null,"REV_AT_EPOCH":"433","TIME_SYSTEM":"UTC","MEAN_MOTION_DOT":"-0.00009635","LAUNCH_DATE":"2023-02-02","MEAN_MOTION":"15.71309172","SEMIMAJOR_AXIS":"6733.291","TLE_LINE2":"2 55451  42.9991 228.7706 0001116 281.7693  78.3049 15.71309172  4330","ELEMENT_SET_NO":"999"},{"CENTER_NAME":"EARTH","RCS_SIZE":"LARGE","MEAN_MOTION_DDOT":"0.0000000000000","ARG_OF_PERICENTER":"273.9488","APOAPSIS":"356.115","CLASSIFICATION_TYPE":"U","PERIAPSIS":"353.788","ECCENTRICITY":"0.00017280","MEAN_ANOMALY":"86.1182","FILE":"3847542","EPHEMERIS_TYPE":"0","BSTAR":"0.00029643000000","EPOCH":"2023-02-28T11:31:34.260960","NORAD_CAT_ID":"55452","COUNTRY_CODE":"US","OBJECT_ID":"2023-015D","SITE":"AFETR","PERIOD":"91.639","GP_ID":"227240576","OBJECT_TYPE":"PAYLOAD","MEAN_ELEMENT_THEORY":"SGP4","REF_FRAME":"TEME","INCLINATION":"43.0002","RA_OF_ASC_NODE":"231.0718","TLE_LINE1":"1 55452U 23015D   23059.48025765  .00038642  00000-0  29643-3 0  9998","OBJECT_NAME":"STARLINK-5683","DECAY_DATE":null,"REV_AT_EPOCH":"427","TIME_SYSTEM":"UTC","MEAN_MOTION_DOT":"0.00038642","LAUNCH_DATE":"2023-02-02","MEAN_MOTION":"15.71380857","SEMIMAJOR_AXIS":"6733.087","TLE_LINE2":"2 55452  43.0002 231.0718 0001728 273.9488  86.1182 15.71380857  4277","ELEMENT_SET_NO":"999"},{"EPHEMERIS_TYPE":"0","BSTAR":"0.00002974300000","MEAN_ANOMALY":"83.6504","FILE":"3847656","ECCENTRICITY":"0.00016050","CLASSIFICATION_TYPE":"U","PERIAPSIS":"354.070","MEAN_MOTION_DDOT":"0.0000000000000","ARG_OF_PERICENTER":"276.4181","APOAPSIS":"356.232","RCS_SIZE":"LARGE","CENTER_NAME":"EARTH","TLE_LINE2":"2 55453  43.0002 228.7687 0001605 276.4181  83.6504 15.71311013  4333","ELEMENT_SET_NO":"999","MEAN_MOTION":"15.71311013","SEMIMAJOR_AXIS":"6733.286","TIME_SYSTEM":"UTC","MEAN_MOTION_DOT":"0.00003443","LAUNCH_DATE":"2023-02-02","TLE_LINE1":"1 55453U 23015E   23059.86153660  .00003443  00000-0  29743-4 0  9990","DECAY_DATE":null,"OBJECT_NAME":"STARLINK-5684","REV_AT_EPOCH":"433","MEAN_ELEMENT_THEORY":"SGP4","REF_FRAME":"TEME","INCLINATION":"43.0002","RA_OF_ASC_NODE":"228.7687","SITE":"AFETR","PERIOD":"91.643","GP_ID":"227269707","OBJECT_TYPE":"PAYLOAD","NORAD_CAT_ID":"55453","COUNTRY_CODE":"US","OBJECT_ID":"2023-015E","EPOCH":"2023-02-28T20:40:36.762240"},{"OBJECT_ID":"2023-015F","COUNTRY_CODE":"US","NORAD_CAT_ID":"55454","EPOCH":"2023-02-28T20:40:09.211872","RA_OF_ASC_NODE":"228.7644","INCLINATION":"43.0005","REF_FRAME":"TEME","MEAN_ELEMENT_THEORY":"SGP4","GP_ID":"227269957","OBJECT_TYPE":"PAYLOAD","PERIOD":"91.642","SITE":"AFETR","LAUNCH_DATE":"2023-02-02","MEAN_MOTION_DOT":"-0.00004815","TIME_SYSTEM":"UTC","DECAY_DATE":null,"OBJECT_NAME":"STARLINK-5636","REV_AT_EPOCH":"433","TLE_LINE1":"1 55454U 23015F   23059.86121773 -.00004815  00000-0 -33319-4 0  9991","ELEMENT_SET_NO":"999","TLE_LINE2":"2 55454  43.0005 228.7644 0002276 237.2032 122.8617 15.71329169  4337","SEMIMAJOR_AXIS":"6733.234","MEAN_MOTION":"15.71329169","CENTER_NAME":"EARTH","RCS_SIZE":"LARGE","PERIAPSIS":"353.567","CLASSIFICATION_TYPE":"U","APOAPSIS":"356.632","ARG_OF_PERICENTER":"237.2032","MEAN_MOTION_DDOT":"0.0000000000000","FILE":"3847656","MEAN_ANOMALY":"122.8617","ECCENTRICITY":"0.00022760","BSTAR":"-0.00003331900000","EPHEMERIS_TYPE":"0"},{"REV_AT_EPOCH":"427","DECAY_DATE":null,"OBJECT_NAME":"STARLINK-5680","TLE_LINE1":"1 55455U 23015G   23059.48036432  .00008731  00000-0  70022-4 0  9998","TIME_SYSTEM":"UTC","MEAN_MOTION_DOT":"0.00008731","LAUNCH_DATE":"2023-02-02","SEMIMAJOR_AXIS":"6733.224","MEAN_MOTION":"15.71332856","ELEMENT_SET_NO":"999","TLE_LINE2":"2 55455  42.9998 231.0704 0001896 276.2307  83.8344 15.71332856  4279","EPOCH":"2023-02-28T11:31:43.477248","COUNTRY_CODE":"US","OBJECT_ID":"2023-015G","NORAD_CAT_ID":"55455","OBJECT_TYPE":"PAYLOAD","GP_ID":"227241828","SITE":"AFETR","PERIOD":"91.642","RA_OF_ASC_NODE":"231.0704","REF_FRAME":"TEME","MEAN_ELEMENT_THEORY":"SGP4","INCLINATION":"42.9998","ECCENTRICITY":"0.00018960","FILE":"3847542","MEAN_ANOMALY":"83.8344","BSTAR":"0.00007002200000","EPHEMERIS_TYPE":"0","CENTER_NAME":"EARTH","RCS_SIZE":"LARGE","APOAPSIS":"356.365","MEAN_MOTION_DDOT":"0.0000000000000","ARG_OF_PERICENTER":"276.2307","PERIAPSIS":"353.812","CLASSIFICATION_TYPE":"U"}];
